{
  "type": "FeatureCollection",
  "features": [
    {
      "type": "Feature",
      "properties": {
        "norad_id": 66489,
        "name": "STARLINK-35696",
        "group": "last-30-days",
        "lat": -42.91549433523776,
        "lon": 35.563285011962144,
        "alt_km": 416.85969164559174,
        "timestamp": "2025-12-13T07:35:40.336227+00:00",
        "meta_object_name": "STARLINK-35696",
        "meta_object_id": "2025-263E",
        "meta_epoch": "2025-12-12T18:03:23.393376",
        "meta_mean_motion": 15.5059305,
        "meta_eccentricity": 0.00016481,
        "meta_inclination": 42.9983,
        "meta_ra_of_asc_node": 125.0801,
        "meta_arg_of_pericenter": 268.6341,
        "meta_mean_anomaly": 91.4331,
        "meta_ephemeris_type": 0,
        "meta_classification_type": "U",
        "meta_norad_cat_id": 66489,
        "meta_element_set_no": 999,
        "meta_rev_at_epoch": 556,
        "meta_bstar": 0.0019955256,
        "meta_mean_motion_dot": 0.00118575,
        "meta_mean_motion_ddot": 0,
        "tle_line1": "1 66489U 25263E   25346.75235409  .00118575  00000+0  19955-2 0  9993",
        "tle_line2": "2 66489  42.9983 125.0801 0001648 268.6341  91.4331 15.50593050  5566"
      },
      "geometry": {
        "type": "Point",
        "coordinates": [
          35.563285011962144,
          -42.91549433523776
        ]
      }
    },
    {
      "type": "Feature",
      "properties": {
        "norad_id": 66490,
        "name": "STARLINK-35693",
        "group": "last-30-days",
        "lat": -10.69510422361926,
        "lon": -46.33690534366472,
        "alt_km": 445.41385054027523,
        "timestamp": "2025-12-13T07:35:40.336239+00:00",
        "meta_object_name": "STARLINK-35693",
        "meta_object_id": "2025-263F",
        "meta_epoch": "2025-12-12T20:00:01.999872",
        "meta_mean_motion": 15.40603969,
        "meta_eccentricity": 0.00013504,
        "meta_inclination": 42.9995,
        "meta_ra_of_asc_node": 124.7538,
        "meta_arg_of_pericenter": 308.5418,
        "meta_mean_anomaly": 84.6352,
        "meta_ephemeris_type": 0,
        "meta_classification_type": "U",
        "meta_norad_cat_id": 66490,
        "meta_element_set_no": 999,
        "meta_rev_at_epoch": 565,
        "meta_bstar": 0.0030030335,
        "meta_mean_motion_dot": 0.00126841,
        "meta_mean_motion_ddot": 0,
        "tle_line1": "1 66490U 25263F   25346.83335648  .00126841  00000+0  30030-2 0  9992",
        "tle_line2": "2 66490  42.9995 124.7538 0001350 308.5418  84.6352 15.40603969  5650"
      },
      "geometry": {
        "type": "Point",
        "coordinates": [
          -46.33690534366472,
          -10.69510422361926
        ]
      }
    },
    {
      "type": "Feature",
      "properties": {
        "norad_id": 66491,
        "name": "STARLINK-35663",
        "group": "last-30-days",
        "lat": -42.39573712697593,
        "lon": 43.29216475870935,
        "alt_km": 417.2372754054177,
        "timestamp": "2025-12-13T07:35:40.336249+00:00",
        "meta_object_name": "STARLINK-35663",
        "meta_object_id": "2025-263G",
        "meta_epoch": "2025-12-12T18:01:55.795008",
        "meta_mean_motion": 15.50630115,
        "meta_eccentricity": 0.00015407,
        "meta_inclination": 42.9981,
        "meta_ra_of_asc_node": 125.0709,
        "meta_arg_of_pericenter": 327.4704,
        "meta_mean_anomaly": 32.6061,
        "meta_ephemeris_type": 0,
        "meta_classification_type": "U",
        "meta_norad_cat_id": 66491,
        "meta_element_set_no": 999,
        "meta_rev_at_epoch": 556,
        "meta_bstar": 0.0018199012,
        "meta_mean_motion_dot": 0.00108107,
        "meta_mean_motion_ddot": 0,
        "tle_line1": "1 66491U 25263G   25346.75134022  .00108107  00000+0  18199-2 0  9994",
        "tle_line2": "2 66491  42.9981 125.0709 0001540 327.4704  32.6061 15.50630115  5563"
      },
      "geometry": {
        "type": "Point",
        "coordinates": [
          43.29216475870935,
          -42.39573712697593
        ]
      }
    },
    {
      "type": "Feature",
      "properties": {
        "norad_id": 66492,
        "name": "STARLINK-35673",
        "group": "last-30-days",
        "lat": 6.042476112746232,
        "lon": -64.49413173661382,
        "alt_km": 443.11141099286215,
        "timestamp": "2025-12-13T07:35:40.336258+00:00",
        "meta_object_name": "STARLINK-35673",
        "meta_object_id": "2025-263H",
        "meta_epoch": "2025-12-12T20:00:01.999872",
        "meta_mean_motion": 15.40622711,
        "meta_eccentricity": 0.00014263,
        "meta_inclination": 43,
        "meta_ra_of_asc_node": 124.8129,
        "meta_arg_of_pericenter": 276.376,
        "meta_mean_anomaly": 92.0744,
        "meta_ephemeris_type": 0,
        "meta_classification_type": "U",
        "meta_norad_cat_id": 66492,
        "meta_element_set_no": 999,
        "meta_rev_at_epoch": 565,
        "meta_bstar": 0.0034844785,
        "meta_mean_motion_dot": 0.00147724,
        "meta_mean_motion_ddot": 0,
        "tle_line1": "1 66492U 25263H   25346.83335648  .00147724  00000+0  34845-2 0  9995",
        "tle_line2": "2 66492  43.0000 124.8129 0001426 276.3760  92.0744 15.40622711  5658"
      },
      "geometry": {
        "type": "Point",
        "coordinates": [
          -64.49413173661382,
          6.042476112746232
        ]
      }
    },
    {
      "type": "Feature",
      "properties": {
        "norad_id": 66493,
        "name": "STARLINK-35597",
        "group": "last-30-days",
        "lat": -41.748507692936045,
        "lon": 48.448796638094706,
        "alt_km": 416.668228977931,
        "timestamp": "2025-12-13T07:35:40.336267+00:00",
        "meta_object_name": "STARLINK-35597",
        "meta_object_id": "2025-263J",
        "meta_epoch": "2025-12-12T18:00:54.953856",
        "meta_mean_motion": 15.50614629,
        "meta_eccentricity": 0.00018758,
        "meta_inclination": 42.9974,
        "meta_ra_of_asc_node": 125.0647,
        "meta_arg_of_pericenter": 274.0009,
        "meta_mean_anomaly": 86.0637,
        "meta_ephemeris_type": 0,
        "meta_classification_type": "U",
        "meta_norad_cat_id": 66493,
        "meta_element_set_no": 999,
        "meta_rev_at_epoch": 556,
        "meta_bstar": 0.0016305797,
        "meta_mean_motion_dot": 0.0009663,
        "meta_mean_motion_ddot": 0,
        "tle_line1": "1 66493U 25263J   25346.75063604  .00096630  00000+0  16306-2 0  9998",
        "tle_line2": "2 66493  42.9974 125.0647 0001875 274.0009  86.0637 15.50614629  5568"
      },
      "geometry": {
        "type": "Point",
        "coordinates": [
          48.448796638094706,
          -41.748507692936045
        ]
      }
    },
    {
      "type": "Feature",
      "properties": {
        "norad_id": 66494,
        "name": "STARLINK-35689",
        "group": "last-30-days",
        "lat": -42.870449672760536,
        "lon": 26.85405204101911,
        "alt_km": 425.9452007803966,
        "timestamp": "2025-12-13T07:35:40.336276+00:00",
        "meta_object_name": "STARLINK-35689",
        "meta_object_id": "2025-263K",
        "meta_epoch": "2025-12-12T18:03:24.665184",
        "meta_mean_motion": 15.47517155,
        "meta_eccentricity": 0.00021524,
        "meta_inclination": 42.9971,
        "meta_ra_of_asc_node": 125.0777,
        "meta_arg_of_pericenter": 302.4914,
        "meta_mean_anomaly": 57.5737,
        "meta_ephemeris_type": 0,
        "meta_classification_type": "U",
        "meta_norad_cat_id": 66494,
        "meta_element_set_no": 999,
        "meta_rev_at_epoch": 556,
        "meta_bstar": 0.0016577823,
        "meta_mean_motion_dot": 0.00087982,
        "meta_mean_motion_ddot": 0,
        "tle_line1": "1 66494U 25263K   25346.75236881  .00087982  00000+0  16578-2 0  9999",
        "tle_line2": "2 66494  42.9971 125.0777 0002152 302.4914  57.5737 15.47517155  5566"
      },
      "geometry": {
        "type": "Point",
        "coordinates": [
          26.85405204101911,
          -42.870449672760536
        ]
      }
    },
    {
      "type": "Feature",
      "properties": {
        "norad_id": 66495,
        "name": "STARLINK-35832",
        "group": "last-30-days",
        "lat": -41.886894943522826,
        "lon": 47.51026265279404,
        "alt_km": 419.9946219426329,
        "timestamp": "2025-12-13T07:35:40.336286+00:00",
        "meta_object_name": "STARLINK-35832",
        "meta_object_id": "2025-263L",
        "meta_epoch": "2025-12-12T19:33:21.941856",
        "meta_mean_motion": 15.49798239,
        "meta_eccentricity": 0.00024982,
        "meta_inclination": 42.9996,
        "meta_ra_of_asc_node": 124.6875,
        "meta_arg_of_pericenter": 262.5587,
        "meta_mean_anomaly": 97.4989,
        "meta_ephemeris_type": 0,
        "meta_classification_type": "U",
        "meta_norad_cat_id": 66495,
        "meta_element_set_no": 999,
        "meta_rev_at_epoch": 557,
        "meta_bstar": -0.0060463366,
        "meta_mean_motion_dot": -0.00331191,
        "meta_mean_motion_ddot": 0,
        "tle_line1": "1 66495U 25263L   25346.81483729 -.00331191  00000+0 -60463-2 0  9990",
        "tle_line2": "2 66495  42.9996 124.6875 0002498 262.5587  97.4989 15.49798239  5572"
      },
      "geometry": {
        "type": "Point",
        "coordinates": [
          47.51026265279404,
          -41.886894943522826
        ]
      }
    }
  ]
}